[{"OBJECT_NAME":"STARLINK-30494","OBJECT_ID":"2023-151G","EPOCH":"2026-03-09T08:39:06.366240","MEAN_MOTION":15.28417441,"ECCENTRICITY":0.00011553,"INCLINATION":43.0027,"RA_OF_ASC_NODE":192.4566,"ARG_OF_PERICENTER":241.5536,"MEAN_ANOMALY":118.52,"EPHEMERIS_TYPE":0,"CLASSIFICATION_TYPE":"U","NORAD_CAT_ID":57970,"ELEMENT_SET_NO":999,"REV_AT_EPOCH":13740,"BSTAR":-3.569111e-5,"MEAN_MOTION_DOT":-1.272e-5,"MEAN_MOTION_DDOT":0},{"OBJECT_NAME":"STARLINK-35479","OBJECT_ID":"2025-253H","EPOCH":"2026-03-09T10:14:25.936512","MEAN_MOTION":15.27610344,"ECCENTRICITY":6.014e-5,"INCLINATION":42.9949,"RA_OF_ASC_NODE":214.038,"ARG_OF_PERICENTER":172.3535,"MEAN_ANOMALY":187.7326,"EPHEMERIS_TYPE":0,"CLASSIFICATION_TYPE":"U","NORAD_CAT_ID":66326,"ELEMENT_SET_NO":999,"REV_AT_EPOCH":2020,"BSTAR":0.0012142397,"MEAN_MOTION_DOT":0.00033333,"MEAN_MOTION_DDOT":0}]
