STARLINK-30494          
1 57970U 23151G   26068.36049035 -.00001272  00000+0 -35691-4 0  9993
2 57970  43.0027 192.4566 0001155 241.5536 118.5200 15.28417441137406
STARLINK-35479          
1 66326U 25253H   26068.42668908  .00033333  00000+0  12142-2 0  9991
2 66326  42.9949 214.0380 0000601 172.3535 187.7326 15.27610344 20204
